OBJECT_NAME,OBJECT_ID,EPOCH,MEAN_MOTION,ECCENTRICITY,INCLINATION,RA_OF_ASC_NODE,ARG_OF_PERICENTER,MEAN_ANOMALY,EPHEMERIS_TYPE,CLASSIFICATION_TYPE,NORAD_CAT_ID,ELEMENT_SET_NO,REV_AT_EPOCH,BSTAR,MEAN_MOTION_DOT,MEAN_MOTION_DDOT
H-2A R/B,2006-002B,2026-07-06T00:52:32.393856,15.18346327,.00501886,98.2591,344.5760,197.1875,162.7660,0,U,28932,999,11238,.42274052E-3,.8892E-4,0
RESURS-DK 1,2006-021A,2026-07-05T14:38:18.441888,15.13295235,.00067081,69.9334,291.8628,281.9377,78.1037,0,U,29228,999,10536,.14148269E-3,.2417E-4,0
CZ-4B R/B,2006-046C,2026-07-06T02:34:30.615456,15.17933029,.00317086,97.5439,231.6563,214.0326,145.8874,0,U,29507,999,7800,.2074734E-3,.4193E-4,0
CZ-2C R/B,2007-010B,2026-07-06T07:00:57.610944,14.20280383,.00580008,98.4113,294.7103,310.1462,49.4643,0,U,31114,999,99655,.56651585E-4,.82E-6,0
COSMO-SKYMED 1,2007-023A,2026-07-06T05:59:45.742272,14.97192938,.0001051,97.8851,19.2669,86.3050,273.8292,0,U,31598,999,3264,.18454144E-3,.2074E-4,0
COSMOS 2428,2007-029A,2026-07-05T18:18:45.281376,14.12929996,.00071637,70.9381,315.4743,99.4011,260.7920,0,U,31792,999,98077,.10247177E-3,.143E-5,0
SL-16 R/B,2007-029B,2026-07-06T06:28:48.343008,14.14851441,.00022486,70.9759,283.1145,259.5836,166.2912,0,U,31793,999,98214,-.79879996E-4,-.202E-5,0
KORONAS-FOTON,2009-003A,2026-07-05T21:57:02.685024,15.46140660,.00125476,82.4303,152.7178,90.4587,269.8099,0,U,33504,999,96399,.25391808E-3,.12521E-3,0
CZ-2C R/B,2011-030B,2026-07-05T21:14:01.751136,14.81518868,.00514189,97.8663,141.9347,327.1500,93.6178,0,U,37731,999,80759,.17576709E-3,.1354E-4,0
H-2A R/B,2012-025E,2026-07-05T21:18:26.837568,14.95814577,.00421464,98.4842,163.5768,286.4604,73.1985,0,U,38341,999,76588,.32057684E-3,.3572E-4,0
SHIJIAN-16 (SJ-16),2013-057A,2026-07-06T08:12:24.627744,14.92657563,.00161405,74.9742,320.4020,186.2892,173.8096,0,U,39358,999,68920,.2554726E-3,.2611E-4,0
SL-4 R/B,2014-021B,2026-07-06T04:19:48.049536,15.42352336,.00901598,51.6061,117.6981,175.3338,184.8508,0,U,39679,999,67454,.20258967E-3,.9839E-4,0
ALOS-2,2014-029A,2026-07-05T01:29:05.864352,14.79477316,.0001666,97.9228,282.9699,89.5658,270.5745,0,U,39766,999,65422,.80746E-4,.552E-5,0
YAOGAN-29,2015-069A,2026-07-06T06:30:30.010752,14.83101725,.00014455,98.0018,215.9336,25.5586,334.5698,0,U,41038,999,57345,.45927922E-4,.32E-5,0
ASTRO-H (HITOMI),2016-012A,2026-07-05T17:37:44.854752,15.10604615,.00095548,31.0001,314.3979,79.5177,280.6537,0,U,41337,999,57009,.21750855E-3,.3781E-4,0
HXMT (HUIYAN),2017-034A,2026-07-06T03:26:41.054208,15.18630917,.00327843,43.0140,77.4762,265.6532,94.0570,0,U,42758,999,50054,.20991598E-3,.4243E-4,0
SAOCOM 1A,2018-076A,2026-07-06T07:24:59.562144,14.82162650,.00015484,97.8888,13.7793,79.8810,280.2578,0,U,43641,999,41893,.16935229E-4,.83E-6,0
H-2A R/B,2018-084L,2026-07-06T05:27:49.742784,15.45947673,.00210628,98.8545,70.2864,333.6417,26.3755,0,U,43682,999,42406,.4424083E-3,.21639E-3,0
SAOCOM 1B,2020-059A,2026-07-06T06:32:45.211200,14.82153689,.00015612,97.8891,12.8389,81.7634,278.3756,0,U,46265,999,31631,.77496934E-4,.565E-5,0
CSS (TIANHE),2021-035A,2026-07-06T07:19:16.408992,15.58006739,.00029355,41.4676,205.7143,272.6042,87.4460,0,U,48274,999,29615,.17387936E-3,.13102E-3,0
COSMOS 2550,2021-056A,2026-07-06T04:41:05.733600,15.33765367,.00084271,67.1432,42.4078,272.5324,87.4866,0,U,48865,999,28163,.15846019E-3,.5015E-4,0
CZ-2C R/B,2022-058K,2026-07-06T01:03:00.945216,15.63290384,.00310754,50.1852,65.3044,344.7676,15.2360,0,U,52794,999,22859,.47409114E-3,.45252E-3,0
CZ-2C R/B,2022-132E,2026-07-05T23:40:54.362784,15.74012788,.00114638,97.2894,194.8803,20.9359,339.2373,0,U,54039,999,20890,.54286086E-3,.77845E-3,0
GSLV R/B,2022-138AN,2026-07-06T00:45:01.506816,14.97351849,.00241587,87.3813,126.6562,82.0293,278.3679,0,U,54149,999,20163,.30128855E-3,.3546E-4,0
XRISM,2023-137A,2026-07-06T04:42:29.850912,15.12630206,.00077973,31.0012,236.4557,155.9905,204.1098,0,U,57800,999,15574,.23128314E-3,.4243E-4,0
ACS3,2024-077B,2026-07-06T00:05:22.684128,13.95177466,.01122477,97.1719,101.6151,46.8108,314.2371,0,U,59588,999,11066,.34053281E-1,.48724E-3,0
SPACEMOBILE-003,2024-163A,2026-06-26T19:29:47.816736,15.20822722,.0005991,52.9744,265.1828,141.0621,219.0806,0,U,61045,999,9923,.90246E-4,.1689E-4,0
SPACEMOBILE-005,2024-163B,2026-07-06T03:03:30.963744,15.20814784,.00091339,52.9791,222.2813,166.4225,193.7017,0,U,61046,999,10064,-.6514986E-4,-.1786E-4,0
SPACEMOBILE-001,2024-163C,2026-07-05T19:08:18.733056,15.20827435,.00074001,52.9763,223.5137,162.9242,197.2003,0,U,61047,999,10059,.12996754E-3,.2578E-4,0
SPACEMOBILE-002,2024-163D,2026-07-05T14:01:29.313120,15.20873419,.0006239,52.9742,224.5396,164.5958,195.5228,0,U,61048,999,10056,.4581115E-3,.994E-4,0
