H-2A R/B                
1 28932U 06002B   26187.03648604  .00008892  00000+0  42274-3 0  9995
2 28932  98.2591 344.5760 0050188 197.1875 162.7660 15.18346327112382
RESURS-DK 1             
1 29228U 06021A   26186.60993567  .00002417  00000+0  14148-3 0  9994
2 29228  69.9334 291.8628 0006708 281.9377  78.1037 15.13295235105360
CZ-4B R/B               
1 29507U 06046C   26187.10729879  .00004193  00000+0  20747-3 0  9995
2 29507  97.5439 231.6563 0031708 214.0326 145.8874 15.17933029 78007
CZ-2C R/B               
1 31114U 07010B   26187.29233346  .00000082  00000+0  56652-4 0  9991
2 31114  98.4113 294.7103 0058000 310.1462  49.4643 14.20280383996559
COSMO-SKYMED 1          
1 31598U 07023A   26187.24983498  .00002074  00000+0  18454-3 0  9996
2 31598  97.8851  19.2669 0001051  86.3050 273.8292 14.97192938 32649
COSMOS 2428             
1 31792U 07029A   26186.76302409  .00000143  00000+0  10247-3 0  9998
2 31792  70.9381 315.4743 0007163  99.4011 260.7920 14.12929996980779
SL-16 R/B               
1 31793U 07029B   26187.27000397 -.00000202  00000+0 -79880-4 0  9994
2 31793  70.9759 283.1145 0002248 259.5836 166.2912 14.14851441982144
KORONAS-FOTON           
1 33504U 09003A   26186.91461441  .00012521  00000+0  25392-3 0  9994
2 33504  82.4303 152.7178 0012547  90.4587 269.8099 15.46140660963992
CZ-2C R/B               
1 37731U 11030B   26186.88474249  .00001354  00000+0  17577-3 0  9997
2 37731  97.8663 141.9347 0051418 327.1500  93.6178 14.81518868807591
H-2A R/B                
1 38341U 12025E   26186.88781062  .00003572  00000+0  32058-3 0  9999
2 38341  98.4842 163.5768 0042146 286.4604  73.1985 14.95814577765887
SHIJIAN-16 (SJ-16)      
1 39358U 13057A   26187.34195171  .00002611  00000+0  25547-3 0  9994
2 39358  74.9742 320.4020 0016140 186.2892 173.8096 14.92657563689209
SL-4 R/B                
1 39679U 14021B   26187.18041724  .00009839  00000+0  20259-3 0  9992
2 39679  51.6061 117.6981 0090159 175.3338 184.8508 15.42352336674546
ALOS-2                  
1 39766U 14029A   26186.06187343  .00000552  00000+0  80746-4 0  9992
2 39766  97.9228 282.9699 0001666  89.5658 270.5745 14.79477316654223
YAOGAN-29               
1 41038U 15069A   26187.27118068  .00000320  00000+0  45928-4 0  9990
2 41038  98.0018 215.9336 0001445  25.5586 334.5698 14.83101725573452
ASTRO-H (HITOMI)        
1 41337U 16012A   26186.73454693  .00003781  00000+0  21751-3 0  9999
2 41337  31.0001 314.3979 0009554  79.5177 280.6537 15.10604615570091
HXMT (HUIYAN)           
1 42758U 17034A   26187.14353072  .00004243  00000+0  20992-3 0  9997
2 42758  43.0140  77.4762 0032784 265.6532  94.0570 15.18630917500546
SAOCOM 1A               
1 43641U 18076A   26187.30902271  .00000083  00000+0  16935-4 0  9996
2 43641  97.8888  13.7793 0001548  79.8810 280.2578 14.82162650418931
H-2A R/B                
1 43682U 18084L   26187.22765906  .00021639  00000+0  44241-3 0  9993
2 43682  98.8545  70.2864 0021062 333.6417  26.3755 15.45947673424064
SAOCOM 1B               
1 46265U 20059A   26187.27274550  .00000565  00000+0  77497-4 0  9998
2 46265  97.8891  12.8389 0001561  81.7634 278.3756 14.82153689316319
CSS (TIANHE)            
1 48274U 21035A   26187.30505103  .00013102  00000+0  17388-3 0  9993
2 48274  41.4676 205.7143 0002935 272.6042  87.4460 15.58006739296155
COSMOS 2550             
1 48865U 21056A   26187.19520525  .00005015  00000+0  15846-3 0  9995
2 48865  67.1432  42.4078 0008427 272.5324  87.4866 15.33765367281632
CZ-2C R/B               
1 52794U 22058K   26187.04376094  .00045252  00000+0  47409-3 0  9995
2 52794  50.1852  65.3044 0031075 344.7676  15.2360 15.63290384228599
CZ-2C R/B               
1 54039U 22132E   26186.98674031  .00077845  00000+0  54286-3 0  9990
2 54039  97.2894 194.8803 0011463  20.9359 339.2373 15.74012788208900
GSLV R/B                
1 54149U 22138AN  26187.03126744  .00003546  00000+0  30129-3 0  9995
2 54149  87.3813 126.6562 0024158  82.0293 278.3679 14.97351849201632
XRISM                   
1 57800U 23137A   26187.19617883  .00004243  00000+0  23128-3 0  9994
2 57800  31.0012 236.4557 0007797 155.9905 204.1098 15.12630206155747
ACS3                    
1 59588U 24077B   26187.00373477  .00048724  00000+0  34053-1 0  9990
2 59588  97.1719 101.6151 0112247  46.8108 314.2371 13.95177466110664
SPACEMOBILE-003         
1 61045U 24163A   26177.81235899  .00001689  00000+0  90246-4 0  9998
2 61045  52.9744 265.1828 0005991 141.0621 219.0806 15.20822722 99230
SPACEMOBILE-005         
1 61046U 24163B   26187.12744171 -.00001786  00000+0 -65150-4 0  9998
2 61046  52.9791 222.2813 0009133 166.4225 193.7017 15.20814784100643
SPACEMOBILE-001         
1 61047U 24163C   26186.79743904  .00002578  00000+0  12997-3 0  9992
2 61047  52.9763 223.5137 0007400 162.9242 197.2003 15.20827435100596
SPACEMOBILE-002         
1 61048U 24163D   26186.58436705  .00009940  00000+0  45811-3 0  9999
2 61048  52.9742 224.5396 0006239 164.5958 195.5228 15.20873419100563
